ONEWEB-0517             
1 54135U 22138Y   23277.59856707  .00000135  00000+0  30494-3 0  9993
2 54135  87.9225 141.3335 0002098  84.4775 275.6597 13.19724191 46703
ONEWEB-0518             
1 54136U 22138Z   23277.69334038  .00000110  00000+0  24256-3 0  9995
2 54136  87.9223 141.3144 0001778  85.3776 274.7560 13.19725615 47584
ONEWEB-0519             
1 54137U 22138AA  23277.56697969  .00000166  00000+0  38253-3 0  9990
2 54137  87.9228 141.3375 0002159  85.1374 275.0005 13.19724721 46700
ONEWEB-0520             
1 54138U 22138AB  23277.60174448  .00000024  00000+0  26472-4 0  9992
2 54138  87.9224 141.3328 0002326  76.7759 283.3633 13.19724593 46698
ONEWEB-0521             
1 54139U 22138AC  23277.71071176  .00000041  00000+0  70919-4 0  9993
2 54139  87.9226 141.3079 0001664  90.5569 269.5754 13.19725989 47557
ONEWEB-0522             
1 54140U 22138AD  23277.53854434 -.00000042  00000+0 -13695-3 0  9991
2 54140  87.9224 141.3443 0001838  75.8984 284.2353 13.19724207 46675
ONEWEB-0523             
1 54141U 22138AE  23277.60184695  .00000040  00000+0  66002-4 0  9992
2 54141  87.9156 110.8565 0000535  92.8534 267.2660 13.20772252 49949
ONEWEB-0524             
1 54142U 22138AF  23277.58922521  .00000096  00000+0  20318-3 0  9998
2 54142  87.9185 110.8395 0001504  41.7089 318.4159 13.20771006 49070
